NORAD_CAT_ID,OBJECT_NAME,OBJECT_TYPE,EPOCH,MEAN_MOTION,ECCENTRICITY,INCLINATION,RA_OF_ASC_NODE,ARG_OF_PERICENTER,MEAN_ANOMALY,BSTAR,MEAN_MOTION_DOT,MEAN_MOTION_DDOT,TLE_LINE0,TLE_LINE1,TLE_LINE2,SEMIMAJOR_AXIS,PERIOD,APOGEE,PERIGEE,DECAYED
49179.0,STARLINK-3043,PAYLOAD,2023-12-01 00:29:39,14.98321247,0.0002608,69.999,186.3336,267.1334,92.9527,-0.00011373,-1.449e-05,0.0,0 STARLINK-3043,1 49179U 21082BB  23335.02059944 -.00001449  00000-0 -11373-3 0  9990,2 49179  69.9990 186.3336 0002608 267.1334  92.9527 14.98321247122680,6950.22,96.108,573.898,570.272,0.0
49179.0,STARLINK-3043,PAYLOAD,2023-12-01 21:19:24,14.98325956,0.0002089,69.9993,184.1472,265.0348,95.0572,1.8743e-05,1.31e-06,0.0,0 STARLINK-3043,1 49179U 21082BB  23335.88847849  .00000131  00000-0  18743-4 0  9997,2 49179  69.9993 184.1472 0002089 265.0348  95.0572 14.98325956122815,6950.205,96.107,573.522,570.618,0.0
49179.0,STARLINK-3043,PAYLOAD,2023-12-02 00:31:40,14.98329113,0.0002369,69.9987,183.8101,272.9878,87.101,6.3858e-05,6.69e-06,0.0,0 STARLINK-3043,1 49179U 21082BB  23336.02199581  .00000669  00000-0  63858-4 0  9990,2 49179  69.9987 183.8101 0002369 272.9878  87.1010 14.98329113122839,6950.196,96.107,573.707,570.414,0.0
49179.0,STARLINK-3043,PAYLOAD,2023-12-02 13:20:44,14.98335572,0.0002325,69.9977,182.4619,255.9893,104.1008,0.00011571,1.288e-05,0.0,0 STARLINK-3043,1 49179U 21082BB  23336.55606773  .00001288  00000-0  11571-3 0  9996,2 49179  69.9977 182.4619 0002325 255.9893 104.1008 14.98335572122919,6950.176,96.107,573.657,570.425,0.0
49179.0,STARLINK-3043,PAYLOAD,2023-12-02 19:45:16,14.98338932,0.0002146,69.9991,181.7905,256.1302,103.9618,0.00018023,2.059e-05,0.0,0 STARLINK-3043,1 49179U 21082BB  23336.82310438  .00002059  00000-0  18023-3 0  9992,2 49179  69.9991 181.7905 0002146 256.1302 103.9618 14.98338932122955,6950.165,96.106,573.522,570.539,0.0
49179.0,STARLINK-3043,PAYLOAD,2023-12-02 21:21:24,14.98338123,0.0002159,69.9992,181.6224,257.2291,102.8626,0.00016686,1.899e-05,0.0,0 STARLINK-3043,1 49179U 21082BB  23336.88986462  .00001899  00000-0  16686-3 0  9998,2 49179  69.9992 181.6224 0002159 257.2291 102.8626 14.98338123122962,6950.168,96.106,573.533,570.532,0.0
49179.0,STARLINK-3043,PAYLOAD,2023-12-03 13:22:45,14.98325784,0.0001707,70.0003,179.9412,241.7078,118.3909,0.00028296,3.284e-05,0.0,0 STARLINK-3043,1 49179U 21082BB  23337.55746952  .00003284  00000-0  28296-3 0  9991,2 49179  70.0003 179.9412 0001707 241.7078 118.3909 14.98325784123063,6950.206,96.107,573.257,570.885,0.0
49179.0,STARLINK-3043,PAYLOAD,2023-12-03 19:47:18,14.98322982,0.00019,70.0007,179.2672,221.1755,138.9261,3.7655e-05,3.56e-06,0.0,0 STARLINK-3043,1 49179U 21082BB  23337.82451886  .00000356  00000-0  37655-4 0  9997,2 49179  70.0007 179.2672 0001900 221.1755 138.9261 14.98322982123108,6950.215,96.107,573.4,570.759,0.0
49179.0,STARLINK-3043,PAYLOAD,2023-12-04 13:24:46,14.98329596,0.0002361,70.0005,177.4168,260.0861,100.0032,-4.8383e-05,-6.7e-06,0.0,0 STARLINK-3043,1 49179U 21082BB  23338.55887422 -.00000670  00000-0 -48383-4 0  9998,2 49179  70.0005 177.4168 0002361 260.0861 100.0032 14.98329596123214,6950.194,96.107,573.7,570.418,0.0
49179.0,STARLINK-3043,PAYLOAD,2023-12-04 23:01:34,14.98333394,0.000188,70.0005,176.407,263.415,96.6796,-3.4402e-06,-1.34e-06,0.0,0 STARLINK-3043,1 49179U 21082BB  23338.95943057 -.00000134  00000-0 -34402-5 0  9992,2 49179  70.0005 176.4070 0001880 263.4150  96.6796 14.98333394123272,6950.182,96.107,573.354,570.741,0.0
49179.0,STARLINK-3043,PAYLOAD,2023-12-05 13:26:46,14.9836241,0.0001737,70.0007,174.891,256.9919,103.1046,-0.00041448,-5.039e-05,0.0,0 STARLINK-3043,1 49179U 21082BB  23339.56026332 -.00005039  00000-0 -41448-3 0  9993,2 49179  70.0007 174.8910 0001737 256.9919 103.1046 14.98362410123363,6950.093,96.105,573.165,570.75,0.0
49179.0,STARLINK-3043,PAYLOAD,2023-12-06 11:52:39,14.98341768,0.0002078,70.0001,172.5301,259.4876,100.6049,0.00013512,1.52e-05,0.0,0 STARLINK-3043,1 49179U 21082BB  23340.49489786  .00001520  00000-0  13512-3 0  9993,2 49179  70.0001 172.5301 0002078 259.4876 100.6049 14.98341768123509,6950.156,96.106,573.466,570.577,0.0
49179.0,STARLINK-3043,PAYLOAD,2023-12-06 13:28:47,14.98333721,0.0002608,69.9981,172.3638,276.1935,83.8927,4.2399e-05,4.13e-06,0.0,0 STARLINK-3043,1 49179U 21082BB  23340.56166520  .00000413  00000-0  42399-4 0  9995,2 49179  69.9981 172.3638 0002608 276.1935  83.8927 14.98333721123513,6950.181,96.107,573.859,570.234,0.0
49179.0,STARLINK-3043,PAYLOAD,2023-12-07 13:30:48,14.98333163,0.000252,69.9994,169.8404,273.177,86.91,2.0397e-05,1.5e-06,0.0,0 STARLINK-3043,1 49179U 21082BB  23341.56306361  .00000150  00000-0  20397-4 0  9997,2 49179  69.9994 169.8404 0002520 273.1770  86.9100 14.98333163123669,6950.183,96.107,573.8,570.297,0.0
49179.0,STARLINK-3043,PAYLOAD,2023-12-08 13:32:49,14.98331396,0.0002452,69.9984,167.3149,271.8447,88.2431,2.8671e-05,2.49e-06,0.0,0 STARLINK-3043,1 49179U 21082BB  23342.56446228  .00000249  00000-0  28671-4 0  9997,2 49179  69.9984 167.3149 0002452 271.8447  88.2431 14.98331396123812,6950.189,96.107,573.758,570.349,0.0
49179.0,STARLINK-3043,PAYLOAD,2023-12-09 13:34:50,14.98330909,0.0002363,69.9993,164.7905,265.9209,94.168,1.0625e-05,3.4e-07,0.0,0 STARLINK-3043,1 49179U 21082BB  23343.56586187  .00000034  00000-0  10625-4 0  9999,2 49179  69.9993 164.7905 0002363 265.9209  94.1680 14.98330909123961,6950.19,96.107,573.697,570.413,0.0
49179.0,STARLINK-3043,PAYLOAD,2023-12-10 13:36:51,14.98330233,0.0002327,69.9981,162.2642,263.3735,96.7159,2.8681e-05,2.49e-06,0.0,0 STARLINK-3043,1 49179U 21082BB  23344.56726103  .00000249  00000-0  28681-4 0  9993,2 49179  69.9981 162.2642 0002327 263.3735  96.7159 14.98330233124112,6950.192,96.107,573.674,570.44,0.0
49179.0,STARLINK-3043,PAYLOAD,2023-12-10 20:01:23,14.98330218,0.0002383,69.9983,161.5913,265.7382,94.3505,2.815e-05,2.43e-06,0.0,0 STARLINK-3043,1 49179U 21082BB  23344.83430111  .00000243  00000-0  28150-4 0  9999,2 49179  69.9983 161.5913 0002383 265.7382  94.3505 14.98330218124159,6950.192,96.107,573.713,570.401,0.0
49179.0,STARLINK-3043,PAYLOAD,2023-12-10 21:37:31,14.9833036,0.000246,69.9981,161.4228,268.4459,91.6418,2.736e-05,2.34e-06,0.0,0 STARLINK-3043,1 49179U 21082BB  23344.90106089  .00000234  00000-0  27360-4 0  9993,2 49179  69.9981 161.4228 0002460 268.4459  91.6418 14.98330360124168,6950.192,96.107,573.767,570.347,0.0
49179.0,STARLINK-3043,PAYLOAD,2023-12-11 13:38:52,14.98330708,0.0002376,69.9984,159.7396,266.2475,93.8412,3.321e-05,3.03e-06,0.0,0 STARLINK-3043,1 49179U 21082BB  23345.56866054  .00000303  00000-0  33210-4 0  9999,2 49179  69.9984 159.7396 0002376 266.2475  93.8412 14.98330708124262,6950.191,96.107,573.707,570.404,0.0
49179.0,STARLINK-3043,PAYLOAD,2023-12-11 20:03:24,14.98330886,0.0002373,69.9986,159.0665,266.1957,93.8931,3.3128e-05,3.02e-06,0.0,0 STARLINK-3043,1 49179U 21082BB  23345.83570034  .00000302  00000-0  33128-4 0  9996,2 49179  69.9986 159.0665 0002373 266.1957  93.8931 14.98330886124305,6950.19,96.107,573.704,570.406,0.0
49179.0,STARLINK-3043,PAYLOAD,2023-12-11 21:39:32,14.98330982,0.000239,69.9986,158.8982,267.0567,93.0318,3.2556e-05,2.96e-06,0.0,0 STARLINK-3043,1 49179U 21082BB  23345.90246003  .00000296  00000-0  32556-4 0  9996,2 49179  69.9986 158.8982 0002390 267.0567  93.0318 14.98330982124319,6950.19,96.107,573.716,570.394,0.0
49179.0,STARLINK-3043,PAYLOAD,2023-12-12 13:40:53,14.98331316,0.0002364,69.9987,157.2149,266.2784,93.8104,3.5593e-05,3.32e-06,0.0,0 STARLINK-3043,1 49179U 21082BB  23346.57005955  .00000332  00000-0  35593-4 0  9994,2 49179  69.9987 157.2149 0002364 266.2784  93.8104 14.98331316124415,6950.189,96.107,573.697,570.411,0.0
49179.0,STARLINK-3043,PAYLOAD,2023-12-12 20:05:25,14.98331295,0.0002375,69.9989,156.5417,268.1061,91.9826,3.3848e-05,3.11e-06,0.0,0 STARLINK-3043,1 49179U 21082BB  23346.83709955  .00000311  00000-0  33848-4 0  9992,2 49179  69.9989 156.5417 0002375 268.1061  91.9826 14.98331295124458,6950.189,96.107,573.705,570.403,0.0
49179.0,STARLINK-3043,PAYLOAD,2023-12-12 21:41:33,14.98331834,0.0002377,69.9989,156.3734,268.3077,91.781,3.9375e-05,3.77e-06,0.0,0 STARLINK-3043,1 49179U 21082BB  23346.90385913  .00000377  00000-0  39375-4 0  9997,2 49179  69.9989 156.3734 0002377 268.3077  91.7810 14.98331834124460,6950.187,96.107,573.704,570.4,0.0
49179.0,STARLINK-3043,PAYLOAD,2023-12-13 13:42:53,14.98333289,0.0002395,69.9991,154.6898,272.2178,87.8707,4.6792e-05,4.65e-06,0.0,0 STARLINK-3043,1 49179U 21082BB  23347.57145702  .00000465  00000-0  46792-4 0  9990,2 49179  69.9991 154.6898 0002395 272.2178  87.8707 14.98333289124569,6950.183,96.107,573.712,570.383,0.0
49179.0,STARLINK-3043,PAYLOAD,2023-12-13 20:07:26,14.9833316,0.0002425,69.9992,154.0167,274.4676,85.6206,4.1677e-05,4.04e-06,0.0,0 STARLINK-3043,1 49179U 21082BB  23347.83849689  .00000404  00000-0  41677-4 0  9994,2 49179  69.9992 154.0167 0002425 274.4676  85.6206 14.98333160124607,6950.183,96.107,573.734,570.363,0.0
49179.0,STARLINK-3043,PAYLOAD,2023-12-13 21:43:34,14.98333769,0.0002417,69.9993,153.8486,273.3668,86.7215,4.6568e-05,4.63e-06,0.0,0 STARLINK-3043,1 49179U 21082BB  23347.90525613  .00000463  00000-0  46568-4 0  9999,2 49179  69.9993 153.8486 0002417 273.3668  86.7215 14.98333769124617,6950.181,96.107,573.726,570.366,0.0
49179.0,STARLINK-3043,PAYLOAD,2023-12-14 13:44:55,14.98329103,0.0002339,69.9996,152.1658,270.2438,89.8453,-2.606e-07,-9.6e-07,0.0,0 STARLINK-3043,1 49179U 21082BB  23348.57285989 -.00000096  00000-0 -26060-6 0  9993,2 49179  69.9996 152.1658 0002339 270.2438  89.8453 14.98329103124713,6950.196,96.107,573.686,570.435,0.0
49179.0,STARLINK-3043,PAYLOAD,2023-12-14 20:09:27,14.98328684,0.0002336,69.9994,151.4923,269.0658,91.0233,-4.6774e-06,-1.49e-06,0.0,0 STARLINK-3043,1 49179U 21082BB  23348.83990029 -.00000149  00000-0 -46774-5 0  9992,2 49179  69.9994 151.4923 0002336 269.0658  91.0233 14.98328684124753,6950.197,96.107,573.686,570.438,0.0
